"OBJECT_NAME","OBJECT_ID","EPOCH","MEAN_MOTION","ECCENTRICITY","INCLINATION","RA_OF_ASC_NODE","ARG_OF_PERICENTER","MEAN_ANOMALY","EPHEMERIS_TYPE","CLASSIFICATION_TYPE","NORAD_CAT_ID","ELEMENT_SET_NO","REV_AT_EPOCH","BSTAR","MEAN_MOTION_DOT","MEAN_MOTION_DDOT"
"STARLINK-3782","2022-041N","2025-03-24T17:00:29.523456",15.08839465,0.0001573,53.2181,230.6321,105.0002,255.1164,0,"U",52273,999,16166,0.000038221,0.0000032,0
"STARLINK-3790","2022-041P","2025-03-25T03:01:49.598400",15.0884719,0.0001287,53.2165,238.3719,92.9706,267.1433,0,"U",52274,999,16282,-0.00011273,-0.00002082,0
"STARLINK-3784","2022-041Q","2025-03-25T03:12:24.974496",15.08857994,0.0001309,53.2176,238.3367,83.946,276.1681,0,"U",52275,999,16280,0.000045329,0.00000434,0
"STARLINK-3778","2022-041R","2025-03-24T17:24:12.744864",15.08841822,0.0001448,53.2172,240.172,95.1561,264.9596,0,"U",52276,999,16275,0.000036687,0.00000296,0
"STARLINK-3780","2022-041T","2025-03-24T17:18:54.977760",15.08841353,0.0001439,53.2151,240.1888,90.1806,269.9352,0,"U",52278,999,16153,0.0000020956,-0.00000255,0
"STARLINK-3764","2022-041V","2025-03-24T17:03:00.762336",15.08842258,0.0001345,53.2163,240.2395,92.1029,268.0118,0,"U",52280,999,16153,0.000017165,-1.5e-7,0
"STARLINK-3779","2022-041W","2025-03-24T17:25:35.338080",15.08843156,0.0001431,53.2172,240.1669,93.9745,266.1411,0,"U",52281,999,16153,0.000027539,0.0000015,0
"STARLINK-3783","2022-041X","2025-03-24T16:53:44.667744",15.08843717,0.0001316,53.2145,230.266,93.6943,266.4199,0,"U",52282,999,16288,0.00013126,0.00001802,0
"STARLINK-3789","2022-041Y","2025-03-23T20:33:36.707040",15.0883424,0.0001344,53.2168,244.0701,94.8594,265.2552,0,"U",52283,999,16140,-0.000055612,-0.00001173,0
"STARLINK-3561","2022-041Z","2025-03-24T16:43:08.736960",15.08842871,0.0001888,53.2141,230.2979,88.7523,271.3685,0,"U",52284,999,16166,0.00017895,0.00002561,0
"STARLINK-3775","2022-041AA","2025-03-24T17:08:18.857760",15.08840011,0.0001361,53.2165,240.2222,90.6089,269.5059,0,"U",52285,999,16276,0.000063947,0.0000073,0
"STARLINK-3802","2022-041AB","2025-03-24T16:32:32.385408",15.08820382,0.000128,53.2145,230.3345,84.4256,275.6882,0,"U",52286,999,16166,-0.00021706,-0.00003739,0
"STARLINK-3822","2022-041AC","2025-03-24T16:57:42.668640",15.08844256,0.0001501,53.216,240.2543,91.7285,268.3879,0,"U",52287,999,16153,-0.0000036704,-0.00000346,0
"STARLINK-3776","2022-041AD","2025-03-24T10:05:41.866944",15.08861361,0.0000982,53.2159,231.5413,78.8495,281.2608,0,"U",52288,999,16162,-0.0002599,-0.00004424,0
"STARLINK-3751","2022-041AE","2025-03-24T16:48:26.941248",15.08841447,0.0001299,53.2158,230.2835,87.1723,272.9418,0,"U",52289,999,16288,0.00070026,0.00010875,0
"STARLINK-3772","2022-041AF","2025-03-25T12:52:44.622912",15.08834939,0.0001423,53.2165,226.5277,93.8829,266.2326,0,"U",52290,999,16300,0.00002492,0.00000109,0
"STARLINK-3773","2022-041AG","2025-03-25T00:37:32.152512",15.51294266,0.0006658,53.196,190.7799,249.9512,110.0782,0,"U",52291,999,16347,0.002138,0.00129325,0
"STARLINK-3753","2022-041AH","2025-03-25T12:46:04.232352",15.08831631,0.0001555,53.2153,226.5515,87.4006,272.7164,0,"U",52292,999,16301,0.000099782,0.000013,0
"STARLINK-3771","2022-041AJ","2025-03-24T19:34:05.102112",15.08851262,0.0001523,53.2174,229.778,105.5856,254.5304,0,"U",52293,999,16168,0.00010173,0.00001332,0
"STARLINK-3777","2022-041AK","2025-03-25T12:40:46.107552",15.08848109,0.0001418,53.2144,226.567,88.6327,271.4828,0,"U",52294,999,16301,0.00031225,0.00004686,0
"STARLINK-3765","2022-041AL","2025-03-24T09:55:06.644640",15.08836432,0.0001463,53.2155,231.5719,92.7738,267.3422,0,"U",52295,999,16284,-0.000038286,-0.00000897,0
"STARLINK-3766","2022-041AM","2025-03-24T18:55:36.837984",15.08852023,0.0001352,53.2175,229.8865,87.3042,272.8105,0,"U",52296,999,16168,0.000010506,-0.00000121,0
"STARLINK-3758","2022-041AN","2025-03-25T12:51:21.927744",15.08835306,0.0002024,53.2145,226.5315,93.4279,266.6945,0,"U",52297,999,16301,0.00010078,0.00001316,0
"STARLINK-3760","2022-041AP","2025-03-24T19:32:38.953536",15.08843302,0.000169,53.2181,229.3842,111.1031,249.0142,0,"U",52298,999,16169,-0.0000609,-0.00001257,0
"STARLINK-3769","2022-041AR","2025-03-25T08:58:12.339552",15.08837141,0.0001841,53.2147,227.2585,90.7771,269.3432,0,"U",52300,999,16299,0.00024471,0.00003608,0
"STARLINK-3768","2022-041AS","2025-03-24T19:06:13.382208",15.08851889,0.0001636,53.2159,229.853,83.499,276.6188,0,"U",52301,999,16168,-0.0000060766,-0.00000385,0
"STARLINK-3564","2022-041AT","2025-03-24T15:14:22.989120",15.0884542,0.0001623,53.2178,220.5766,89.5165,270.6013,0,"U",52302,999,16300,0.00010092,0.00001319,0
"STARLINK-3742","2022-041AU","2025-03-24T18:45:01.557792",15.08839022,0.0001474,53.2184,229.9209,95.7651,264.3509,0,"U",52303,999,16290,0.000033897,0.00000252,0
"STARLINK-3744","2022-041AV","2025-03-24T15:09:04.768416",15.0885185,0.000126,53.2167,220.5928,88.897,271.2166,0,"U",52304,999,16301,-0.000035612,-0.00000855,0
"STARLINK-3724","2022-041AW","2025-03-23T20:34:58.361952",15.08828627,0.0001425,53.2179,234.1705,92.1733,267.9422,0,"U",52305,999,16154,-0.000040215,-0.00000928,0
"STARLINK-3747","2022-041AX","2025-03-24T18:14:33.108288",15.08850309,0.000143,53.2168,220.0145,84.8304,275.2851,0,"U",52306,999,16303,0.00015754,0.00002221,0
"STARLINK-3755","2022-041AY","2025-03-24T16:59:02.465952",15.08841901,0.0001374,53.2179,230.2515,98.1486,261.9662,0,"U",52307,999,16288,0.000021413,5.3e-7,0
"STARLINK-3756","2022-041BA","2025-03-24T18:09:15.427584",15.08841411,0.0001504,53.2171,220.0309,90.6435,269.4729,0,"U",52309,999,16303,0.000064736,0.00000742,0
"STARLINK-3688","2022-041BB","2025-03-24T08:31:39.956448",15.08837629,0.000134,53.2166,221.8958,96.6425,263.4719,0,"U",52310,999,16297,-0.000061829,-0.00001272,0
"STARLINK-3750","2022-041BC","2025-03-24T10:01:45.110208",15.08846129,0.0001135,53.2159,221.5481,106.511,253.6006,0,"U",52311,999,16298,0.00017597,0.00002514,0
"STARLINK-3752","2022-041BD","2025-03-25T12:04:59.630016",15.08833877,0.0001366,53.2159,216.63,81.7767,278.338,0,"U",52312,999,16315,0.00011791,0.00001589,0
"STARLINK-3749","2022-041BE","2025-03-25T12:10:17.746176",15.0884833,0.0001813,53.2139,216.6597,101.644,258.4755,0,"U",52313,999,16315,0.00027516,0.00004095,0
"SUPERVIEW NEO-1 01","2022-043A","2025-03-25T00:16:26.940288",15.14531176,0.0003576,97.3795,166.5142,66.1202,294.0405,0,"U",52320,999,16159,0.00083016,0.00015255,0
"SUPERVIEW NEO-1 02","2022-043C","2025-03-25T11:37:33.823200",15.14601287,0.000321,97.3791,167.0628,65.9491,294.2076,0,"U",52322,999,16168,0.00097232,0.00017919,0
"STARLINK-3889","2022-045A","2025-03-24T16:49:46.660800",15.08834854,0.0001984,53.219,340.2769,96.6193,263.5025,0,"U",52331,999,16280,-0.000060255,-0.00001247,0
"STARLINK-3831","2022-045B","2025-03-24T23:28:35.947776",15.088535,0.0001365,53.2164,339.0483,84.626,275.4887,0,"U",52332,999,16284,0.0015199,0.00023993,0
"STARLINK-3847","2022-045C","2025-03-23T23:31:07.959072",15.08839746,0.0001342,53.2184,343.5169,108.4652,251.6486,0,"U",52333,999,16268,-0.00013889,-0.00002498,0
"STARLINK-3880","2022-045D","2025-03-24T16:44:28.783104",15.08835486,0.0001261,53.2202,340.2955,93.7853,266.3283,0,"U",52334,999,16279,-0.000039818,-0.00000921,0
"STARLINK-3814","2022-045E","2025-03-24T00:45:19.962720",15.08832484,0.0001474,53.2188,343.2883,83.2377,276.8783,0,"U",52335,999,16270,0.000080556,0.00000994,0
"STARLINK-3823","2022-045F","2025-03-24T23:58:58.416672",15.08864241,0.000123,53.2183,338.7367,96.6824,263.4308,0,"U",52336,999,16285,0.0014835,0.00023416,0
"STARLINK-3797","2022-045G","2025-03-24T23:16:37.015104",15.08838859,0.0001257,53.2174,339.0766,87.6854,272.4282,0,"U",52337,999,16284,0.00040594,0.00006178,0
"STARLINK-3792","2022-045J","2025-03-24T23:27:10.035936",15.08820375,0.0000984,53.2196,338.6841,86.2255,273.885,0,"U",52339,999,16285,0.00019033,0.00002741,0
"STARLINK-3818","2022-045K","2025-03-24T17:01:41.744352",15.08836972,0.00012,53.2179,330.2373,77.8518,282.2609,0,"U",52340,999,16293,0.000056442,0.0000061,0
"STARLINK-3843","2022-045L","2025-03-24T19:28:44.848416",15.0884413,0.000146,53.2173,339.7364,106.7503,253.3649,0,"U",52341,999,16282,0.001807,0.00028591,0
"STARLINK-3850","2022-045M","2025-03-24T23:28:33.465504",15.08854495,0.0001408,53.2175,329.1527,94.9854,265.1299,0,"U",52342,999,16298,0.00045564,0.00006974,0
"STARLINK-3849","2022-045N","2025-03-24T23:32:30.939360",15.08863254,0.0001283,53.2176,339.0274,96.8643,263.2495,0,"U",52343,999,16285,0.0019395,0.00030734,0
"STARLINK-3851","2022-045P","2025-03-25T08:44:57.507072",15.08843766,0.0001056,53.2169,327.3708,101.9038,258.2073,0,"U",52344,999,16304,0.00021989,0.00003214,0
"STARLINK-3852","2022-045Q","2025-03-25T01:26:31.585056",15.08870996,0.0001295,53.2176,328.8357,87.9099,272.2041,0,"U",52345,999,16298,0.0012349,0.00019437,0
"STARLINK-3812","2022-045R","2025-03-24T23:03:25.653312",15.08842842,0.000143,53.2175,329.1265,94.1106,266.005,0,"U",52346,999,16298,0.00040089,0.00006098,0
"STARLINK-3826","2022-045S","2025-03-24T23:19:19.512768",15.08856642,0.0001612,53.2181,329.0769,114.2285,245.8876,0,"U",52347,999,16298,0.00082648,0.00012896,0
"STARLINK-3829","2022-045T","2025-03-24T22:51:26.152128",15.0884615,0.0001341,53.2178,329.1533,75.7074,284.4067,0,"U",52348,999,16298,0.000084173,0.00001052,0
"STARLINK-3819","2022-045U","2025-03-23T23:16:33.155616",15.08813578,0.0001351,53.219,333.5636,86.835,273.2797,0,"U",52349,999,16283,-0.00031877,-0.00005354,0
"STARLINK-3754","2022-045V","2025-03-24T22:46:09.048576",15.08851118,0.0001596,53.2174,329.1706,101.5626,258.5545,0,"U",52350,999,16298,0.0012165,0.00019131,0
"STARLINK-3838","2022-045X","2025-03-24T22:30:14.910912",15.08842503,0.0001642,53.2186,329.2183,76.7532,283.3643,0,"U",52352,999,16298,0.00021476,0.00003132,0
"STARLINK-3807","2022-045Y","2025-03-24T22:40:50.319840",15.08846494,0.0001432,53.2182,329.1863,100.4327,259.6827,0,"U",52353,999,16298,0.00037642,0.00005709,0
"STARLINK-3876","2022-045Z","2025-03-25T01:25:07.644864",15.08854288,0.00016,53.219,328.6757,84.8822,275.2353,0,"U",52354,999,16300,0.00049014,0.00007524,0
